NORAD_CAT_ID,OBJECT_NAME,OBJECT_TYPE,EPOCH,MEAN_MOTION,ECCENTRICITY,INCLINATION,RA_OF_ASC_NODE,ARG_OF_PERICENTER,MEAN_ANOMALY,BSTAR,MEAN_MOTION_DOT,MEAN_MOTION_DDOT,TLE_LINE0,TLE_LINE1,TLE_LINE2,SEMIMAJOR_AXIS,PERIOD,APOGEE,PERIGEE,DECAYED
51714.0,STARLINK-3528,PAYLOAD,2022-09-11 06:00:00,15.08853622,0.0001537,53.2149,294.8040000000001,61.8142,57.62,-0.0014737,-0.00023674,0.0,0 STARLINK-3528,1 51714U 22016A   22254.25001157 -.00023674  00000-0 -14737-2 0  9993,2 51714  53.2149 294.8040 0001537  61.8142  57.6200 15.08853622 31946,6917.839,95.437,540.7669999999998,538.64,0.0
51714.0,STARLINK-3528,PAYLOAD,2022-09-11 14:00:01,15.08824519,0.0001602,53.2141,293.3088,53.7777,77.2609,0.0027091999999999,0.00043075,0.0,0 STARLINK-3528,1 51714U 22016A   22254.58334491  .00043075  00000-0  27092-2 0  9992,2 51714  53.2141 293.3088 0001602  53.7777  77.2609 15.08824519  1302,6917.928000000001,95.439,540.901,538.684,0.0
51714.0,STARLINK-3528,PAYLOAD,2022-09-11 22:00:00,15.08829228,0.0001409999999999,53.2141,291.8105,59.5414,83.1003,-0.00024383,-4.165e-05,0.0,0 STARLINK-3528,1 51714U 22016A   22254.91667824 -.00004165  00000-0 -24383-3 0  9998,2 51714  53.2141 291.8105 0001410  59.5414  83.1003 15.08829228  1300,6917.913000000001,95.438,540.754,538.803,0.0
51714.0,STARLINK-3528,PAYLOAD,2022-09-12 06:00:00,15.0884285,0.0001483,53.2141,290.3146,58.8718,95.3471,-0.0014367,-0.00023082,0.0,0 STARLINK-3528,1 51714U 22016A   22255.25001157 -.00023082  00000-0 -14367-2 0  9996,2 51714  53.2141 290.3146 0001483  58.8718  95.3471 15.08842850 32098,6917.871999999999,95.437,540.763,538.711,0.0
51714.0,STARLINK-3528,PAYLOAD,2022-09-12 14:00:01,15.08817301,0.0001583,53.2138,288.819,51.2038,114.6074,0.0027660999999999,0.00043982,0.0,0 STARLINK-3528,1 51714U 22016A   22255.58334491  .00043982  00000-0  27661-2 0  9992,2 51714  53.2138 288.8190 0001583  51.2038 114.6074 15.08817301  1305,6917.95,95.439,540.91,538.72,0.0
51714.0,STARLINK-3528,PAYLOAD,2022-09-12 22:00:00,15.08825141,0.0001438,53.2139,287.3207,57.389,120.0191,0.0025339,0.00040253,0.0,0 STARLINK-3528,1 51714U 22016A   22255.91667824  .00040253  00000-0  25339-2 0  9996,2 51714  53.2139 287.3207 0001438  57.3890 120.0191 15.08825141  1303,6917.926,95.438,540.786,538.7959999999998,0.0
51714.0,STARLINK-3528,PAYLOAD,2022-09-13 08:00:01,15.08791243,0.0001653,53.2167,285.4367,53.0286,228.8676,0.0044084,0.0007047999999999,0.0,0 STARLINK-3528,1 51714U 22016A   22256.33334491  .00070480  00000-0  44084-2 0  9997,2 51714  53.2167 285.4367 0001653  53.0286 228.8676 15.08791243 32259,6918.029,95.441,541.038,538.751,0.0
51714.0,STARLINK-3528,PAYLOAD,2022-09-13 14:00:01,15.08835782,0.0001665999999999,53.2172,284.3114,47.9734,152.5953,0.00015293,2.146e-05,0.0,0 STARLINK-3528,1 51714U 22016A   22256.58334491  .00002146  00000-0  15293-3 0  9999,2 51714  53.2172 284.3114 0001666  47.9734 152.5953 15.08835782  1307,6917.893,95.438,540.911,538.606,0.0
51714.0,STARLINK-3528,PAYLOAD,2022-09-13 22:00:00,15.08816048,0.000164,53.2144,282.8308,60.0012,152.1699,0.0027555,0.0004381,0.0,0 STARLINK-3528,1 51714U 22016A   22256.91667824  .00043810  00000-0  27555-2 0  9991,2 51714  53.2144 282.8308 0001640  60.0012 152.1699 15.08816048 32346,6917.954000000002,95.439,540.953,538.684,0.0
51714.0,STARLINK-3528,PAYLOAD,2022-09-14 14:00:01,15.08854928,0.0001794,53.2146,279.8394,53.1611,182.1998,-0.0013158,-0.00021177,0.0,0 STARLINK-3528,1 51714U 22016A   22257.58334491 -.00021177  00000-0 -13158-2 0  9994,2 51714  53.2146 279.8394 0001794  53.1611 182.1998 15.08854928 32442,6917.835,95.437,540.941,538.4590000000002,0.0
51714.0,STARLINK-3528,PAYLOAD,2022-09-14 22:00:00,15.08808697,0.000162,53.2149,278.3411,58.3075,188.6679,0.0029481999999999,0.00046905,0.0,0 STARLINK-3528,1 51714U 22016A   22257.91667824  .00046905  00000-0  29482-2 0  9991,2 51714  53.2149 278.3411 0001620  58.3075 188.6679 15.08808697  1308,6917.976,95.44,540.962,538.72,0.0
51714.0,STARLINK-3528,PAYLOAD,2022-09-15 14:00:01,15.08853581,0.0001757,53.215,275.3498,52.2267,217.9237,-0.00056115,-9.211e-05,0.0,0 STARLINK-3528,1 51714U 22016A   22258.58334491 -.00009211  00000-0 -56115-3 0  9991,2 51714  53.2150 275.3498 0001757  52.2267 217.9237 15.08853581  1307,6917.839,95.437,540.919,538.488,0.0
51714.0,STARLINK-3528,PAYLOAD,2022-09-15 16:00:00,15.0887638,0.0001719,53.2151,274.9752,52.8499,310.1967,-0.0041071,-0.00065127,0.0,0 STARLINK-3528,1 51714U 22016A   22258.66667824 -.00065127  00000-0 -41071-2 0  9991,2 51714  53.2151 274.9752 0001719  52.8499 310.1967 15.08876380  1305,6917.769,95.435,540.823,538.445,0.0
51714.0,STARLINK-3528,PAYLOAD,2022-09-16 04:42:19,15.08842193,0.0001646,53.216,272.5973,65.6326,294.4838,4.3142e-05,3.99e-06,0.0,0 STARLINK-3528,1 51714U 22016A   22259.19605675  .00000399  00000-0  43142-4 0  9997,2 51714  53.2160 272.5973 0001646  65.6326 294.4838 15.08842193 32685,6917.874,95.437,540.877,538.6,0.0
51714.0,STARLINK-3528,PAYLOAD,2022-09-16 06:17:42,15.08836879,0.0001501,53.2162,272.2998,62.81,297.3045,7.021e-05,8.3e-06,0.0,0 STARLINK-3528,1 51714U 22016A   22259.26229882  .00000830  00000-0  70210-4 0  9993,2 51714  53.2162 272.2998 0001501  62.8100 297.3045 15.08836879 31630,6917.89,95.438,540.793,538.717,0.0
51714.0,STARLINK-3528,PAYLOAD,2022-09-17 04:33:06,15.08833647,0.0001567,53.2159,268.1369,53.8156,306.298,2.1979e-06,-2.53e-06,0.0,0 STARLINK-3528,1 51714U 22016A   22260.18966267 -.00000253  00000-0  21979-5 0  9990,2 51714  53.2159 268.1369 0001567  53.8156 306.2980 15.08833647 32836,6917.9,95.438,540.849,538.681,0.0
51714.0,STARLINK-3528,PAYLOAD,2022-09-17 10:54:39,15.08829125,0.0001779,53.216,266.9506,45.5392,314.5745,-1.0045e-05,-4.48e-06,0.0,0 STARLINK-3528,1 51714U 22016A   22260.45462794 -.00000448  00000-0 -10045-4 0  9994,2 51714  53.2160 266.9506 0001779  45.5392 314.5745 15.08829125 31816,6917.9140000000025,95.438,541.009,538.548,0.0
51714.0,STARLINK-3528,PAYLOAD,2022-09-17 17:16:12,15.08827744,0.0001465999999999,53.2164,265.7604,68.9805,291.1344,-3.8087e-05,-8.94e-06,0.0,0 STARLINK-3528,1 51714U 22016A   22260.71959024 -.00000894  00000-0 -38087-4 0  9991,2 51714  53.2164 265.7604 0001466  68.9805 291.1344 15.08827744 31851,6917.918000000002,95.438,540.797,538.769,0.0
51714.0,STARLINK-3528,PAYLOAD,2022-09-18 09:10:03,15.08834556,0.0001664,53.2163,262.7855,53.7525,306.3621,3.2497e-05,2.29e-06,0.0,0 STARLINK-3528,1 51714U 22016A   22261.38198760  .00000229  00000-0  32497-4 0  9996,2 51714  53.2163 262.7855 0001664  53.7525 306.3621 15.08834556 31953,6917.897,95.438,540.913,538.611,0.0
51714.0,STARLINK-3528,PAYLOAD,2022-09-19 04:14:40,15.08838857,0.0001705,53.2161,259.217,53.4883,306.6266,0.00014646,2.044e-05,0.0,0 STARLINK-3528,1 51714U 22016A   22262.17686302  .00002044  00000-0  14646-3 0  9990,2 51714  53.2161 259.2170 0001705  53.4883 306.6266 15.08838857 33130,6917.884,95.438,540.928,538.569,0.0
51714.0,STARLINK-3528,PAYLOAD,2022-09-19 07:25:27,15.08840633,0.0001710999999999,53.216,258.6222,54.1779,305.9372,0.00016015,2.262e-05,0.0,0 STARLINK-3528,1 51714U 22016A   22262.30934203  .00002262  00000-0  16015-3 0  9995,2 51714  53.2160 258.6222 0001711  54.1779 305.9372 15.08840633 32098,6917.878000000002,95.438,540.927,538.56,0.0
51714.0,STARLINK-3528,PAYLOAD,2022-09-19 16:57:45,15.08844072,0.0001675999999999,53.2158,256.8373,56.1939,303.9213,0.0001649,2.338e-05,0.0,0 STARLINK-3528,1 51714U 22016A   22262.70677955  .00002338  00000-0  16490-3 0  9998,2 51714  53.2158 256.8373 0001676  56.1939 303.9213 15.08844072 32152,6917.868,95.437,540.8919999999998,538.5740000000002,0.0
51714.0,STARLINK-3528,PAYLOAD,2022-09-20 08:51:37,15.08839051,0.0001733,53.2161,253.8638,57.3166,302.7993,5.7151e-05,6.22e-06,0.0,0 STARLINK-3528,1 51714U 22016A   22263.36918610  .00000622  00000-0  57151-4 0  9991,2 51714  53.2161 253.8638 0001733  57.3166 302.7993 15.08839051 33318,6917.8830000000025,95.438,540.947,538.549,0.0
51714.0,STARLINK-3528,PAYLOAD,2022-09-21 16:39:20,15.08843562,0.0001563,53.2165,247.9134,64.5336,295.5818,-1.913e-05,-5.92e-06,0.0,0 STARLINK-3528,1 51714U 22016A   22264.69398188 -.00000592  00000-0 -19130-4 0  9993,2 51714  53.2165 247.9134 0001563  64.5336 295.5818 15.08843562 32458,6917.87,95.437,540.816,538.653,0.0
51714.0,STARLINK-3528,PAYLOAD,2022-09-22 05:22:25,15.08838615,0.0001608,53.2153,245.5365,58.5474,301.5675,4.5692e-05,4.39e-06,0.0,0 STARLINK-3528,1 51714U 22016A   22265.22390390  .00000439  00000-0  45692-4 0  9990,2 51714  53.2153 245.5365 0001608  58.5474 301.5675 15.08838615 32532,6917.885,95.438,540.862,538.637,0.0
51714.0,STARLINK-3528,PAYLOAD,2022-09-23 05:13:12,15.08836092,0.0001666999999999,53.2159,241.0771,61.7191,298.397,7.9743e-05,9.81e-06,0.0,0 STARLINK-3528,1 51714U 22016A   22266.21750749  .00000981  00000-0  79743-4 0  9994,2 51714  53.2159 241.0771 0001667  61.7191 298.3970 15.08836092 33749,6917.892,95.438,540.911,538.604,0.0
51714.0,STARLINK-3528,PAYLOAD,2022-09-24 05:04:00,15.08832985,0.000173,53.2164,236.6174,60.6961,299.4203,8.6175e-05,1.083e-05,0.0,0 STARLINK-3528,1 51714U 22016A   22267.21111225  .00001083  00000-0  86175-4 0  9996,2 51714  53.2164 236.6174 0001730  60.6961 299.4203 15.08832985 32833,6917.901999999999,95.438,540.964,538.57,0.0
51714.0,STARLINK-3528,PAYLOAD,2022-09-24 14:36:18,15.08839309,0.0001732,53.2166,234.8332,60.7668,299.3497,0.0001276,1.743e-05,0.0,0 STARLINK-3528,1 51714U 22016A   22267.60854832  .00001743  00000-0  12760-3 0  9998,2 51714  53.2166 234.8332 0001732  60.7668 299.3497 15.08839309 33953,6917.8830000000025,95.438,540.946,538.549,0.0
51714.0,STARLINK-3528,PAYLOAD,2022-09-25 03:19:22,15.08851942,0.0001744,53.2158,232.4525,55.3858,304.7298,0.00014974,2.097e-05,0.0,0 STARLINK-3528,1 51714U 22016A   22268.13845867  .00002097  00000-0  14974-3 0  9997,2 51714  53.2158 232.4525 0001744  55.3858 304.7298 15.08851942 34033,6917.844,95.437,540.915,538.502,0.0
